NORAD_CAT_ID,OBJECT_NAME,OBJECT_TYPE,EPOCH,MEAN_MOTION,ECCENTRICITY,INCLINATION,RA_OF_ASC_NODE,ARG_OF_PERICENTER,MEAN_ANOMALY,BSTAR,MEAN_MOTION_DOT,MEAN_MOTION_DDOT,TLE_LINE0,TLE_LINE1,TLE_LINE2,SEMIMAJOR_AXIS,PERIOD,APOGEE,PERIGEE,DECAYED
53835.0,STARLINK-4783,PAYLOAD,2023-01-29 22:13:34,15.08838504,0.0001173,53.2179,358.0476,115.9794,244.1319,0.00012505,1.703e-05,0.0,0 STARLINK-4783,1 53835U 22114T   23029.92609769  .00001703  00000-0  12505-3 0  9995,2 53835  53.2179 358.0476 0001173 115.9794 244.1319 15.08838504 21520,6917.885,95.438,540.561,538.938,0.0
53835.0,STARLINK-4783,PAYLOAD,2023-01-30 07:45:53,15.08846531,0.0001,53.2184,356.2658,89.7122,270.3985,0.00010912,1.45e-05,0.0,0 STARLINK-4783,1 53835U 22114T   23030.32353372  .00001450  00000-0  10912-3 0  9996,2 53835  53.2184 356.2658 0001000  89.7122 270.3985 15.08846531 21046,6917.86,95.437,540.417,539.034,0.0
53835.0,STARLINK-4783,PAYLOAD,2023-01-30 22:04:22,15.08836414,0.0001038,53.2178,353.5891,89.2867,270.8244,2.0858e-05,4.4e-07,0.0,0 STARLINK-4783,1 53835U 22114T   23030.91969935  .00000044  00000-0  20858-4 0  9998,2 53835  53.2178 353.5891 0001038  89.2867 270.8244 15.08836414 21132,6917.891,95.438,540.474,539.038,0.0
53835.0,STARLINK-4783,PAYLOAD,2023-01-31 02:50:31,15.08839113,9.81e-05,53.2197,352.6988,87.666,272.4444,8.8903e-05,1.127e-05,0.0,0 STARLINK-4783,1 53835U 22114T   23031.11841929  .00001127  00000-0  88903-4 0  9991,2 53835  53.2197 352.6988 0000981  87.6660 272.4444 15.08839113 21701,6917.883,95.438,540.427,539.069,0.0
53835.0,STARLINK-4783,PAYLOAD,2023-01-31 20:19:45,15.08842512,0.0001118,53.2189,349.4263,97.8298,262.2821,0.00012513,1.704e-05,0.0,0 STARLINK-4783,1 53835U 22114T   23031.84705694  .00001704  00000-0  12513-3 0  9993,2 53835  53.2189 349.4263 0001118  97.8298 262.2821 15.08842512 21810,6917.873,95.437,540.511,538.964,0.0
53835.0,STARLINK-4783,PAYLOAD,2023-02-01 04:16:40,15.08855183,0.0001122,53.2186,347.94,98.1836,261.9283,0.00025717,3.809e-05,0.0,0 STARLINK-4783,1 53835U 22114T   23032.17824865  .00003809  00000-0  25717-3 0  9990,2 53835  53.2186 347.9400 0001122  98.1836 261.9283 15.08855183 21322,6917.834,95.437,540.475,538.923,0.0
53835.0,STARLINK-4783,PAYLOAD,2023-02-01 18:35:10,15.08824227,0.0001322,53.2188,345.2639,106.8809,253.2329,-0.00016681,-2.94e-05,0.0,0 STARLINK-4783,1 53835U 22114T   23032.77442267 -.00002940  00000-0 -16681-3 0  9995,2 53835  53.2188 345.2639 0001322 106.8809 253.2329 15.08824227 21418,6917.929,95.439,540.708,538.879,0.0
53835.0,STARLINK-4783,PAYLOAD,2023-02-02 02:32:05,15.08831784,0.0001186,53.2184,343.7769,98.0986,262.0141,-0.00010248,-1.918e-05,0.0,0 STARLINK-4783,1 53835U 22114T   23033.10561970 -.00001918  00000-0 -10248-3 0  9993,2 53835  53.2184 343.7769 0001186  98.0986 262.0141 15.08831784 21468,6917.906,95.438,540.591,538.95,0.0
53835.0,STARLINK-4783,PAYLOAD,2023-02-02 04:07:28,15.08837548,0.0001164,53.2184,343.4802,92.673,267.4395,4.2367e-05,3.86e-06,0.0,0 STARLINK-4783,1 53835U 22114T   23033.17185893  .00000386  00000-0  42367-4 0  9990,2 53835  53.2184 343.4802 0001164  92.6730 267.4395 15.08837548 22012,6917.888,95.438,540.558,538.948,0.0
53835.0,STARLINK-4783,PAYLOAD,2023-02-02 21:36:43,15.08848167,0.000124,53.2178,340.2091,89.5084,270.605,0.0010377,0.00016269,0.0,0 STARLINK-4783,1 53835U 22114T   23033.90050100  .00016269  00000-0  10377-2 0  9994,2 53835  53.2178 340.2091 0001240  89.5084 270.6050 15.08848167 21586,6917.855,95.437,540.578,538.863,0.0
53835.0,STARLINK-4783,PAYLOAD,2023-02-03 03:58:15,15.08862331,0.0001302,53.2178,339.0206,80.4337,279.6803,0.0013438,0.00021176,0.0,0 STARLINK-4783,1 53835U 22114T   23034.16545819  .00021176  00000-0  13438-2 0  9993,2 53835  53.2178 339.0206 0001302  80.4337 279.6803 15.08862331 22169,6917.812,95.436,540.578,538.776,0.0
53835.0,STARLINK-4783,PAYLOAD,2023-02-03 19:52:07,15.08854574,0.0001516,53.2181,336.0469,87.6016,272.5149,0.0012165,0.00019133,0.0,0 STARLINK-4783,1 53835U 22114T   23034.82785929  .00019133  00000-0  12165-2 0  9990,2 53835  53.2181 336.0469 0001516  87.6016 272.5149 15.08854574 21727,6917.836,95.437,540.75,538.652,0.0
53835.0,STARLINK-4783,PAYLOAD,2023-02-04 05:24:25,15.08858433,0.0001263,53.2182,334.2624,88.0083,272.1054,0.00080345,0.00012528,0.0,0 STARLINK-4783,1 53835U 22114T   23035.22529566  .00012528  00000-0  80345-3 0  9995,2 53835  53.2182 334.2624 0001263  88.0083 272.1054 15.08858433 21784,6917.824,95.436,540.563,538.815,0.0
53835.0,STARLINK-4783,PAYLOAD,2023-02-04 22:53:40,15.08844753,0.0001378,53.2183,330.9905,85.8993,274.2157,0.00084914,0.00013254,0.0,0 STARLINK-4783,1 53835U 22114T   23035.95394187  .00013254  00000-0  84914-3 0  9997,2 53835  53.2183 330.9905 0001378  85.8993 274.2157 15.08844753 21891,6917.866,95.437,540.684,538.778,0.0
53835.0,STARLINK-4783,PAYLOAD,2023-02-05 05:15:13,15.08845385,0.000135,53.2186,329.8016,82.2627,277.8518,0.0005987,9.255e-05,0.0,0 STARLINK-4783,1 53835U 22114T   23036.21890152  .00009255  00000-0  59870-3 0  9999,2 53835  53.2186 329.8016 0001350  82.2627 277.8518 15.08845385 22476,6917.864,95.437,540.663,538.795,0.0
53835.0,STARLINK-4783,PAYLOAD,2023-02-05 22:44:27,15.08850191,0.0001483,53.2182,326.5307,84.3177,275.7984,0.00048942,7.512e-05,0.0,0 STARLINK-4783,1 53835U 22114T   23036.94753971  .00007512  00000-0  48942-3 0  9998,2 53835  53.2182 326.5307 0001483  84.3177 275.7984 15.08850191 22586,6917.849,95.437,540.74,538.688,0.0
53835.0,STARLINK-4783,PAYLOAD,2023-02-06 01:55:13,15.0885651,0.0001367,53.2187,325.9352,83.4702,276.6446,0.00060611,9.376e-05,0.0,0 STARLINK-4783,1 53835U 22114T   23037.08001713  .00009376  00000-0  60611-3 0  9991,2 53835  53.2187 325.9352 0001367  83.4702 276.6446 15.08856510 22606,6917.83,95.437,540.641,538.749,0.0
53835.0,STARLINK-4783,PAYLOAD,2023-02-06 19:24:27,15.08852506,0.0001386,53.2193,322.6658,83.9804,276.1346,0.00038484,5.844e-05,0.0,0 STARLINK-4783,1 53835U 22114T   23037.80865615  .00005844  00000-0  38484-3 0  9999,2 53835  53.2193 322.6658 0001386  83.9804 276.1346 15.08852506 22712,6917.842,95.437,540.666,538.748,0.0
53835.0,STARLINK-4783,PAYLOAD,2023-02-06 22:35:13,15.08856368,0.0001319,53.2191,322.0697,100.8533,259.2607,0.00044702,6.837e-05,0.0,0 STARLINK-4783,1 53835U 22114T   23037.94113416  .00006837  00000-0  44702-3 0  9992,2 53835  53.2191 322.0697 0001319 100.8533 259.2607 15.08856368 22195,6917.83,95.437,540.608,538.783,0.0
53835.0,STARLINK-4783,PAYLOAD,2023-02-07 03:21:23,15.08865883,0.0001278,53.2195,321.178,103.7022,256.4113,0.00083273,0.00012999,0.0,0 STARLINK-4783,1 53835U 22114T   23038.13985100  .00012999  00000-0  83273-3 0  9993,2 53835  53.2195 321.1780 0001278 103.7022 256.4113 15.08865883 22767,6917.801,95.436,540.55,538.782,0.0
53835.0,STARLINK-4783,PAYLOAD,2023-02-07 22:26:01,15.08842074,0.0001472,53.2203,317.6144,104.9191,255.1964,0.00054588,8.411e-05,0.0,0 STARLINK-4783,1 53835U 22114T   23038.93473535  .00008411  00000-0  54588-3 0  9996,2 53835  53.2203 317.6144 0001472 104.9191 255.1964 15.08842074 22348,6917.874,95.437,540.757,538.721,0.0
53835.0,STARLINK-4783,PAYLOAD,2023-02-08 04:47:33,15.08854299,0.0001269,53.219,316.4211,81.2254,278.8882,0.00080042,0.00012479,0.0,0 STARLINK-4783,1 53835U 22114T   23039.19969325  .00012479  00000-0  80042-3 0  9995,2 53835  53.2190 316.4211 0001269  81.2254 278.8882 15.08854299 22923,6917.837,95.437,540.58,538.824,0.0
53835.0,STARLINK-4783,PAYLOAD,2023-02-08 22:16:48,15.0883534,0.0001256,53.2187,313.1481,96.4861,263.6274,0.00038766,5.886e-05,0.0,0 STARLINK-4783,1 53835U 22114T   23039.92834168  .00005886  00000-0  38766-3 0  9992,2 53835  53.2187 313.1481 0001256  96.4861 263.6274 15.08835340 23036,6917.895,95.438,540.629,538.891,0.0
53835.0,STARLINK-4783,PAYLOAD,2023-02-09 03:02:58,15.0884531,9.53e-05,53.219,312.2597,110.4886,249.6209,0.0015377,0.00024273,0.0,0 STARLINK-4783,1 53835U 22114T   23040.12706182  .00024273  00000-0  15377-2 0  9993,2 53835  53.2190 312.2597 0000953 110.4886 249.6209 15.08845310 22528,6917.864,95.437,540.388,539.07,0.0
53835.0,STARLINK-4783,PAYLOAD,2023-02-09 22:07:36,15.0884006,8.31e-05,53.2178,308.6902,94.7,265.4087,0.00099782,0.00015628,0.0,0 STARLINK-4783,1 53835U 22114T   23040.92194663  .00015628  00000-0  99782-3 0  9993,2 53835  53.2178 308.6902 0000831  94.7000 265.4087 15.08840060 22640,6917.88,95.438,540.32,539.17,0.0
53835.0,STARLINK-4783,PAYLOAD,2023-02-10 02:53:45,15.0886388,0.0001021,53.2182,307.7982,82.5586,277.5522,0.0021188,0.00033616,0.0,0 STARLINK-4783,1 53835U 22114T   23041.12066499  .00033616  00000-0  21188-2 0  9992,2 53835  53.2182 307.7982 0001021  82.5586 277.5522 15.08863880 23216,6917.807,95.436,540.379,538.966,0.0
53835.0,STARLINK-4783,PAYLOAD,2023-02-10 23:33:45,15.08866486,8.43e-05,53.2176,303.9302,129.5428,230.5639,0.0019865,0.00031492,0.0,0 STARLINK-4783,1 53835U 22114T   23041.98178095  .00031492  00000-0  19865-2 0  9991,2 53835  53.2176 303.9302 0000843 129.5428 230.5639 15.08866486 22808,6917.799,95.436,540.248,539.081,0.0
53835.0,STARLINK-4783,PAYLOAD,2023-02-11 17:03:00,15.08840482,0.0001342,53.2175,300.6584,141.5439,218.5649,0.0022118,0.00035089,0.0,0 STARLINK-4783,1 53835U 22114T   23042.71042589  .00035089  00000-0  22118-2 0  9992,2 53835  53.2175 300.6584 0001342 141.5439 218.5649 15.08840482 23451,6917.879,95.438,540.672,538.816,0.0
53835.0,STARLINK-4783,PAYLOAD,2023-02-11 23:24:33,15.08839193,1.43e-05,53.2176,299.4704,203.6768,156.4218,0.0016864,0.00026653,0.0,0 STARLINK-4783,1 53835U 22114T   23042.97538754  .00026653  00000-0  16864-2 0  9992,2 53835  53.2176 299.4704 0000143 203.6768 156.4218 15.08839193 22957,6917.883,95.438,539.847,539.649,0.0
53835.0,STARLINK-4783,PAYLOAD,2023-02-12 10:32:15,15.08836564,8.62e-05,53.2172,297.3885,103.7083,256.4005,0.00073414,0.00011414,0.0,0 STARLINK-4783,1 53835U 22114T   23043.43907178  .00011414  00000-0  73414-3 0  9998,2 53835  53.2172 297.3885 0000862 103.7083 256.4005 15.08836564 23021,6917.891,95.438,540.352,539.16,0.0
